FLOCK 4G-13             
1 62621U 25009N   26068.70638971  .00053076  00000+0  16695-2 0  9995
2 62621  97.4019 151.0918 0003801 292.7207  67.3633 15.32770015 63700
STARLINK-34251          
1 64205U 25117C   26068.23982308  .00024912  00000+0  85047-3 0  9994
2 64205  53.1616  41.9196 0001135 108.1610 251.9514 15.30197405 44457
