[{"OBJECT_NAME":"FLOCK 4G-13","OBJECT_ID":"2025-009N","EPOCH":"2026-03-09T16:57:12.071808","MEAN_MOTION":15.32770015,"ECCENTRICITY":0.0003801,"INCLINATION":97.4019,"RA_OF_ASC_NODE":151.0918,"ARG_OF_PERICENTER":292.7207,"MEAN_ANOMALY":67.3633,"EPHEMERIS_TYPE":0,"CLASSIFICATION_TYPE":"U","NORAD_CAT_ID":62621,"ELEMENT_SET_NO":999,"REV_AT_EPOCH":6370,"BSTAR":0.0016695386,"MEAN_MOTION_DOT":0.00053076,"MEAN_MOTION_DDOT":0},{"OBJECT_NAME":"STARLINK-34251","OBJECT_ID":"2025-117C","EPOCH":"2026-03-09T05:45:20.714112","MEAN_MOTION":15.30197405,"ECCENTRICITY":0.00011356,"INCLINATION":53.1616,"RA_OF_ASC_NODE":41.9196,"ARG_OF_PERICENTER":108.161,"MEAN_ANOMALY":251.9514,"EPHEMERIS_TYPE":0,"CLASSIFICATION_TYPE":"U","NORAD_CAT_ID":64205,"ELEMENT_SET_NO":999,"REV_AT_EPOCH":4445,"BSTAR":0.00085047229,"MEAN_MOTION_DOT":0.00024912,"MEAN_MOTION_DDOT":0}]
